start=new Date('2023-06-20T00:00:00.000Z').valueOf();
sats=[{"REF_FRAME":"TEME","SEMIMAJOR_AXIS":"6925.338","MEAN_MOTION":"15.06403543","MEAN_ANOMALY":"264.7770","OBJECT_TYPE":"PAYLOAD","RCS_SIZE":"LARGE","NORAD_CAT_ID":"44939","TLE_LINE2":"2 44939  53.0552 109.4305 0001324  95.3370 264.7770 15.06403543190284","APOAPSIS":"548.120","SITE":"AFETR","TLE_LINE1":"1 44939U 20001AB  23170.56105876  .00002311  00000-0  17396-3 0  9999","LAUNCH_DATE":"2020-01-07","ECCENTRICITY":"0.00013240","CENTER_NAME":"EARTH","REV_AT_EPOCH":"19028","ELEMENT_SET_NO":"999","INCLINATION":"53.0552","FILE":"3937459","EPOCH":"2023-06-19T13:27:55.476864","MEAN_MOTION_DOT":"0.00002311","OBJECT_ID":"2020-001AB","BSTAR":"0.00017396000000","EPHEMERIS_TYPE":"0","GP_ID":"234294967","OBJECT_NAME":"STARLINK-1083","TIME_SYSTEM":"UTC","MEAN_ELEMENT_THEORY":"SGP4","COUNTRY_CODE":"US","PERIOD":"95.592","RA_OF_ASC_NODE":"109.4305","CLASSIFICATION_TYPE":"U","ARG_OF_PERICENTER":"95.3370","DECAY_DATE":null,"MEAN_MOTION_DDOT":"0.0000000000000","PERIAPSIS":"546.286"},{"RCS_SIZE":"LARGE","NORAD_CAT_ID":"44940","MEAN_ANOMALY":"271.8242","OBJECT_TYPE":"PAYLOAD","MEAN_MOTION":"15.06416128","SEMIMAJOR_AXIS":"6925.299","REF_FRAME":"TEME","ECCENTRICITY":"0.00011870","CENTER_NAME":"EARTH","TLE_LINE1":"1 44940U 20001AC  23170.63846852  .00016754  00000-0  11405-2 0  9995","LAUNCH_DATE":"2020-01-07","SITE":"AFETR","APOAPSIS":"547.986","TLE_LINE2":"2 44940  53.0539 109.0848 0001187  88.2882 271.8242 15.06416128190292","GP_ID":"234313107","TIME_SYSTEM":"UTC","OBJECT_NAME":"STARLINK-1091","EPHEMERIS_TYPE":"0","BSTAR":"0.00114050000000","OBJECT_ID":"2020-001AC","MEAN_MOTION_DOT":"0.00016754","EPOCH":"2023-06-19T15:19:23.680128","FILE":"3937509","REV_AT_EPOCH":"19029","ELEMENT_SET_NO":"999","INCLINATION":"53.0539","MEAN_MOTION_DDOT":"0.0000000000000","PERIAPSIS":"546.342","ARG_OF_PERICENTER":"88.2882","DECAY_DATE":null,"PERIOD":"95.591","RA_OF_ASC_NODE":"109.0848","CLASSIFICATION_TYPE":"U","COUNTRY_CODE":"US","MEAN_ELEMENT_THEORY":"SGP4"},{"PERIOD":"95.592","CLASSIFICATION_TYPE":"U","RA_OF_ASC_NODE":"109.5816","MEAN_ELEMENT_THEORY":"SGP4","COUNTRY_CODE":"US","MEAN_MOTION_DDOT":"0.0000000000000","PERIAPSIS":"546.320","ARG_OF_PERICENTER":"97.5689","DECAY_DATE":null,"OBJECT_ID":"2020-001AD","MEAN_MOTION_DOT":"0.00002963","EPOCH":"2023-06-19T12:40:09.564672","FILE":"3937460","REV_AT_EPOCH":"19028","ELEMENT_SET_NO":"999","INCLINATION":"53.0551","GP_ID":"234294482","OBJECT_NAME":"STARLINK-1094","TIME_SYSTEM":"UTC","EPHEMERIS_TYPE":"0","BSTAR":"0.00021774000000","APOAPSIS":"548.127","TLE_LINE2":"2 44941  53.0551 109.5816 0001305  97.5689 262.5448 15.06396829190286","ECCENTRICITY":"0.00013050","CENTER_NAME":"EARTH","LAUNCH_DATE":"2020-01-07","TLE_LINE1":"1 44941U 20001AD  23170.52788848  .00002963  00000-0  21774-3 0  9992","SITE":"AFETR","MEAN_MOTION":"15.06396829","REF_FRAME":"TEME","SEMIMAJOR_AXIS":"6925.358","NORAD_CAT_ID":"44941","RCS_SIZE":"LARGE","MEAN_ANOMALY":"262.5448","OBJECT_TYPE":"PAYLOAD"},{"BSTAR":"0.00035136000000","EPHEMERIS_TYPE":"0","OBJECT_NAME":"STARLINK-1096","TIME_SYSTEM":"UTC","GP_ID":"234282182","INCLINATION":"53.0591","REV_AT_EPOCH":"19051","ELEMENT_SET_NO":"999","EPOCH":"2023-06-19T04:48:31.948128","FILE":"3937338","MEAN_MOTION_DOT":"0.00007613","OBJECT_ID":"2020-001AE","DECAY_DATE":null,"ARG_OF_PERICENTER":"315.0724","PERIAPSIS":"501.086","MEAN_MOTION_DDOT":"0.0000000000000","COUNTRY_CODE":"US","MEAN_ELEMENT_THEORY":"SGP4","RA_OF_ASC_NODE":"91.7477","CLASSIFICATION_TYPE":"U","PERIOD":"94.664","OBJECT_TYPE":"PAYLOAD","MEAN_ANOMALY":"45.0129","NORAD_CAT_ID":"44942","RCS_SIZE":"LARGE","SEMIMAJOR_AXIS":"6880.429","REF_FRAME":"TEME","MEAN_MOTION":"15.21176109","SITE":"AFETR","LAUNCH_DATE":"2020-01-07","TLE_LINE1":"1 44942U 20001AE  23170.20036977  .00007613  00000-0  35136-3 0  9991","CENTER_NAME":"EARTH","ECCENTRICITY":"0.00017550","TLE_LINE2":"2 44942  53.0591  91.7477 0001755 315.0724  45.0129 15.21176109190513","APOAPSIS":"503.501"},{"SEMIMAJOR_AXIS":"6925.378","REF_FRAME":"TEME","MEAN_MOTION":"15.06390372","MEAN_ANOMALY":"272.2536","OBJECT_TYPE":"PAYLOAD","NORAD_CAT_ID":"44943","RCS_SIZE":"LARGE","TLE_LINE2":"2 44943  53.0545 110.9364 0001218  87.8593 272.2536 15.06390372190232","APOAPSIS":"548.087","SITE":"AFETR","TLE_LINE1":"1 44943U 20001AF  23170.22564766  .00003991  00000-0  28675-3 0  9991","LAUNCH_DATE":"2020-01-07","CENTER_NAME":"EARTH","ECCENTRICITY":"0.00012180","INCLINATION":"53.0545","REV_AT_EPOCH":"19023","ELEMENT_SET_NO":"999","EPOCH":"2023-06-19T05:24:55.957824","FILE":"3937338","MEAN_MOTION_DOT":"0.00003991","OBJECT_ID":"2020-001AF","BSTAR":"0.00028675000000","EPHEMERIS_TYPE":"0","TIME_SYSTEM":"UTC","OBJECT_NAME":"STARLINK-1100","GP_ID":"234282932","COUNTRY_CODE":"US","MEAN_ELEMENT_THEORY":"SGP4","RA_OF_ASC_NODE":"110.9364","CLASSIFICATION_TYPE":"U","PERIOD":"95.593","DECAY_DATE":null,"ARG_OF_PERICENTER":"87.8593","PERIAPSIS":"546.400","MEAN_MOTION_DDOT":"0.0000000000000"},{"DECAY_DATE":null,"ARG_OF_PERICENTER":"85.8646","PERIAPSIS":"546.338","MEAN_MOTION_DDOT":"0.0000000000000","RA_OF_ASC_NODE":"110.7222","CLASSIFICATION_TYPE":"U","PERIOD":"95.593","COUNTRY_CODE":"US","MEAN_ELEMENT_THEORY":"SGP4","EPHEMERIS_TYPE":"0","OBJECT_NAME":"STARLINK-1108","TIME_SYSTEM":"UTC","GP_ID":"234282676","BSTAR":"0.00023815000000","MEAN_MOTION_DOT":"0.00003267","OBJECT_ID":"2020-001AG","INCLINATION":"53.0544","REV_AT_EPOCH":"19024","ELEMENT_SET_NO":"999","EPOCH":"2023-06-19T06:33:56.026368","FILE":"3937338","TLE_LINE1":"1 44944U 20001AG  23170.27356512  .00003267  00000-0  23815-3 0  9992","LAUNCH_DATE":"2020-01-07","CENTER_NAME":"EARTH","ECCENTRICITY":"0.00013130","SITE":"AFETR","TLE_LINE2":"2 44944  53.0544 110.7222 0001313  85.8646 274.2493 15.06388860190240","APOAPSIS":"548.157","RCS_SIZE":"LARGE","NORAD_CAT_ID":"44944","MEAN_ANOMALY":"274.2493","OBJECT_TYPE":"PAYLOAD","MEAN_MOTION":"15.06388860","REF_FRAME":"TEME","SEMIMAJOR_AXIS":"6925.383"},{"MEAN_MOTION_DOT":"0.00006861","OBJECT_ID":"2020-001AH","INCLINATION":"53.0538","REV_AT_EPOCH":"19028","ELEMENT_SET_NO":"999","FILE":"3937461","EPOCH":"2023-06-19T13:38:32.790048","EPHEMERIS_TYPE":"0","TIME_SYSTEM":"UTC","OBJECT_NAME":"STARLINK-1109","GP_ID":"234294999","BSTAR":"0.00047891000000","RA_OF_ASC_NODE":"109.4000","CLASSIFICATION_TYPE":"U","PERIOD":"95.592","COUNTRY_CODE":"US","MEAN_ELEMENT_THEORY":"SGP4","DECAY_DATE":null,"ARG_OF_PERICENTER":"93.5272","PERIAPSIS":"546.237","MEAN_MOTION_DDOT":"0.0000000000000","MEAN_MOTION":"15.06409397","REF_FRAME":"TEME","SEMIMAJOR_AXIS":"6925.320","NORAD_CAT_ID":"44945","RCS_SIZE":"LARGE","OBJECT_TYPE":"PAYLOAD","MEAN_ANOMALY":"266.5874","TLE_LINE2":"2 44945  53.0538 109.4000 0001368  93.5272 266.5874 15.06409397190284","APOAPSIS":"548.132","TLE_LINE1":"1 44945U 20001AH  23170.56843507  .00006861  00000-0  47891-3 0  9993","LAUNCH_DATE":"2020-01-07","CENTER_NAME":"EARTH","ECCENTRICITY":"0.00013680","SITE":"AFETR"},{"PERIAPSIS":"443.332","MEAN_MOTION_DDOT":"0.0000000000000","DECAY_DATE":null,"ARG_OF_PERICENTER":"85.9771","MEAN_ELEMENT_THEORY":"SGP4","COUNTRY_CODE":"US","RA_OF_ASC_NODE":"51.7108","CLASSIFICATION_TYPE":"U","PERIOD":"93.563","BSTAR":"0.00054528000000","TIME_SYSTEM":"UTC","OBJECT_NAME":"STARLINK-1110","GP_ID":"234293425","EPHEMERIS_TYPE":"0","EPOCH":"2023-06-19T08:53:51.737280","FILE":"3937416","INCLINATION":"53.0148","REV_AT_EPOCH":"19103","ELEMENT_SET_NO":"999","OBJECT_ID":"2020-001AJ","MEAN_MOTION_DOT":"0.00021100","SITE":"AFETR","CENTER_NAME":"EARTH","ECCENTRICITY":"0.00081140","LAUNCH_DATE":"2020-01-07","TLE_LINE1":"1 44946U 20001AJ  23170.37073770  .00021100  00000-0  54528-3 0  9998","APOAPSIS":"454.410","TLE_LINE2":"2 44946  53.0148  51.7108 0008114  85.9771 274.2159 15.39066343191037","OBJECT_TYPE":"PAYLOAD","MEAN_ANOMALY":"274.2159","RCS_SIZE":"LARGE","NORAD_CAT_ID":"44946","REF_FRAME":"TEME","SEMIMAJOR_AXIS":"6827.006","MEAN_MOTION":"15.39066343"},{"APOAPSIS":"548.189","TLE_LINE2":"2 44949  53.0545 109.4835 0001436 102.1050 258.0099 15.06406077190286","SITE":"AFETR","ECCENTRICITY":"0.00014360","CENTER_NAME":"EARTH","LAUNCH_DATE":"2020-01-07","TLE_LINE1":"1 44949U 20001AM  23170.55000593  .00004729  00000-0  33612-3 0  9993","REF_FRAME":"TEME","SEMIMAJOR_AXIS":"6925.330","MEAN_MOTION":"15.06406077","OBJECT_TYPE":"PAYLOAD","MEAN_ANOMALY":"258.0099","NORAD_CAT_ID":"44949","RCS_SIZE":"LARGE","COUNTRY_CODE":"US","MEAN_ELEMENT_THEORY":"SGP4","RA_OF_ASC_NODE":"109.4835","CLASSIFICATION_TYPE":"U","PERIOD":"95.592","PERIAPSIS":"546.200","MEAN_MOTION_DDOT":"0.0000000000000","DECAY_DATE":null,"ARG_OF_PERICENTER":"102.1050","FILE":"3937463","EPOCH":"2023-06-19T13:12:00.512352","INCLINATION":"53.0545","REV_AT_EPOCH":"19028","ELEMENT_SET_NO":"999","OBJECT_ID":"2020-001AM","MEAN_MOTION_DOT":"0.00004729","BSTAR":"0.00033612000000","TIME_SYSTEM":"UTC","OBJECT_NAME":"STARLINK-1122","GP_ID":"234295026","EPHEMERIS_TYPE":"0"},{"RCS_SIZE":"LARGE","NORAD_CAT_ID":"44950","OBJECT_TYPE":"PAYLOAD","MEAN_ANOMALY":"177.4212","MEAN_MOTION":"15.67206139","SEMIMAJOR_AXIS":"6745.038","REF_FRAME":"TEME","TLE_LINE1":"1 44950U 20001AN  23170.07457061  .00418907  00000-0  36446-2 0  9992","LAUNCH_DATE":"2020-01-07","CENTER_NAME":"EARTH","ECCENTRICITY":"0.00047520","SITE":"AFETR","TLE_LINE2":"2 44950  53.0452  64.8330 0004752 182.6779 177.4212 15.67206139190874","APOAPSIS":"370.109","EPHEMERIS_TYPE":"0","GP_ID":"234283176","TIME_SYSTEM":"UTC","OBJECT_NAME":"STARLINK-1125","BSTAR":"0.00364460000000","MEAN_MOTION_DOT":"0.00418907","OBJECT_ID":"2020-001AN","REV_AT_EPOCH":"19087","ELEMENT_SET_NO":"999","INCLINATION":"53.0452","EPOCH":"2023-06-19T01:47:22.900704","FILE":"3937338","ARG_OF_PERICENTER":"182.6779","DECAY_DATE":null,"MEAN_MOTION_DDOT":"0.0000000000000","PERIAPSIS":"363.698","PERIOD":"91.883","RA_OF_ASC_NODE":"64.8330","CLASSIFICATION_TYPE":"U","COUNTRY_CODE":"US","MEAN_ELEMENT_THEORY":"SGP4"}];
